[Satellite]
VERSION=1.1
NAME=EYESAT-1 (AO-27)
NICKNAME=AO-27
TLE1=1 22825U 93061C   11059.43669617  .00000062  00000-0  41211-4 0  7591
TLE2=2 22825  98.5181   6.1972 0007631 232.7082 127.3411 14.29328523908655
